[{"OBJECT_NAME":"STARLINK-31820","OBJECT_ID":"2024-088T","EPOCH":"2026-03-09T11:00:27.814464","MEAN_MOTION":15.30186376,"ECCENTRICITY":0.00012054,"INCLINATION":53.1609,"RA_OF_ASC_NODE":141.2066,"ARG_OF_PERICENTER":67.96,"MEAN_ANOMALY":292.1529,"EPHEMERIS_TYPE":0,"CLASSIFICATION_TYPE":"U","NORAD_CAT_ID":59725,"ELEMENT_SET_NO":999,"REV_AT_EPOCH":10364,"BSTAR":2.8883534e-5,"MEAN_MOTION_DOT":4.96e-6,"MEAN_MOTION_DDOT":0},{"OBJECT_NAME":"TANSTAAFL-2","OBJECT_ID":"2024-247B","EPOCH":"2026-03-08T04:58:51.015360","MEAN_MOTION":15.28016845,"ECCENTRICITY":0.00030723,"INCLINATION":44.988,"RA_OF_ASC_NODE":125.0934,"ARG_OF_PERICENTER":298.8909,"MEAN_ANOMALY":61.1666,"EPHEMERIS_TYPE":0,"CLASSIFICATION_TYPE":"U","NORAD_CAT_ID":62378,"ELEMENT_SET_NO":999,"REV_AT_EPOCH":6750,"BSTAR":0.00050871624,"MEAN_MOTION_DOT":0.00013897,"MEAN_MOTION_DDOT":0}]
